{"type": "FeatureCollection", "features": [ {"type": "Feature", "properties": {"norad_id": 45344, "name": "BEIDOU-3 G2 (C60)", "group": "gnss", "lat": -1.0407838355615804, "lon": -111.9808048552055, "alt_km": 35777.04732384937, "timestamp": "2025-12-12T05:47:29.014746+00:00", "meta": {"OBJECT_NAME": "BEIDOU-3 G2 (C60)", "OBJECT_ID": "2020-017A", "EPOCH": "2025-12-11T22:27:08.686944", "MEAN_MOTION": 1.00272909, "ECCENTRICITY": 0.00044465, "INCLINATION": 2.4959, "RA_OF_ASC_NODE": 43.8361, "ARG_OF_PERICENTER": 266.1758, "MEAN_ANOMALY": 187.6878, "EPHEMERIS_TYPE": 0, "CLASSIFICATION_TYPE": "U", "NORAD_CAT_ID": 45344, "ELEMENT_SET_NO": 999, "REV_AT_EPOCH": 2138, "BSTAR": 0, "MEAN_MOTION_DOT": -1.33e-06, "MEAN_MOTION_DDOT": 0}, "tle": {"line1": "1 45344U 20017A   25345.93551721 -.00000133  00000+0  00000+0 0  9998", "line2": "2 45344   2.4959  43.8361 0004446 266.1758 187.6878  1.00272909 21388"}}, "geometry": {"type": "Point", "coordinates": [-111.9808048552055, -1.0407838355615804]}}, {"type": "Feature", "properties": {"norad_id": 45358, "name": "COSMOS 2545 (760)", "group": "gnss", "lat": -11.515538187067124, "lon": 144.56295808622272, "alt_km": 19115.011734271917, "timestamp": "2025-12-12T05:47:29.014758+00:00", "meta": {"OBJECT_NAME": "COSMOS 2545 (760)", "OBJECT_ID": "2020-018A", "EPOCH": "2025-12-10T13:58:04.872576", "MEAN_MOTION": 2.13102273, "ECCENTRICITY": 0.00118432, "INCLINATION": 64.471, "RA_OF_ASC_NODE": 319.0455, "ARG_OF_PERICENTER": 248.8319, "MEAN_ANOMALY": 111.0396, "EPHEMERIS_TYPE": 0, "CLASSIFICATION_TYPE": "U", "NORAD_CAT_ID": 45358, "ELEMENT_SET_NO": 999, "REV_AT_EPOCH": 4464, "BSTAR": 0, "MEAN_MOTION_DOT": -5.2e-07, "MEAN_MOTION_DDOT": 0}, "tle": {"line1": "1 45358U 20018A   25344.58200084 -.00000052  00000+0  00000+0 0  9997", "line2": "2 45358  64.4710 319.0455 0011843 248.8319 111.0396  2.13102273 44648"}}, "geometry": {"type": "Point", "coordinates": [144.56295808622272, -11.515538187067124]}}, {"type": "Feature", "properties": {"norad_id": 45807, "name": "BEIDOU-3 G3 (C61)", "group": "gnss", "lat": -1.0703894208666187, "lon": -81.47312909612594, "alt_km": 35787.61316033443, "timestamp": "2025-12-12T05:47:29.014774+00:00", "meta": {"OBJECT_NAME": "BEIDOU-3 G3 (C61)", "OBJECT_ID": "2020-040A", "EPOCH": "2025-12-08T17:33:17.532288", "MEAN_MOTION": 1.00275813, "ECCENTRICITY": 0.00060306, "INCLINATION": 1.9816, "RA_OF_ASC_NODE": 66.5886, "ARG_OF_PERICENTER": 306.262, "MEAN_ANOMALY": 78.7159, "EPHEMERIS_TYPE": 0, "CLASSIFICATION_TYPE": "U", "NORAD_CAT_ID": 45807, "ELEMENT_SET_NO": 999, "REV_AT_EPOCH": 2016, "BSTAR": 0, "MEAN_MOTION_DOT": -3.52e-06, "MEAN_MOTION_DDOT": 0}, "tle": {"line1": "1 45807U 20040A   25342.73145292 -.00000352  00000+0  00000+0 0  9998", "line2": "2 45807   1.9816  66.5886 0006030 306.2620  78.7159  1.00275813 20161"}}, "geometry": {"type": "Point", "coordinates": [-81.47312909612594, -1.0703894208666187]}}, {"type": "Feature", "properties": {"norad_id": 45854, "name": "GPS BIII-3  (PRN 23)", "group": "gnss", "lat": -12.507617090015827, "lon": 27.792664903619407, "alt_km": 20309.716730303004, "timestamp": "2025-12-12T05:47:29.014787+00:00", "meta": {"OBJECT_NAME": "GPS BIII-3  (PRN 23)", "OBJECT_ID": "2020-041A", "EPOCH": "2025-12-11T05:23:02.925888", "MEAN_MOTION": 2.00561914, "ECCENTRICITY": 0.00604597, "INCLINATION": 56.5461, "RA_OF_ASC_NODE": 36.2442, "ARG_OF_PERICENTER": 203.3747, "MEAN_ANOMALY": 126.9066, "EPHEMERIS_TYPE": 0, "CLASSIFICATION_TYPE": "U", "NORAD_CAT_ID": 45854, "ELEMENT_SET_NO": 999, "REV_AT_EPOCH": 4026, "BSTAR": 0, "MEAN_MOTION_DOT": -9.4e-07, "MEAN_MOTION_DDOT": 0}, "tle": {"line1": "1 45854U 20041A   25345.22433942 -.00000094  00000+0  00000+0 0  9993", "line2": "2 45854  56.5461  36.2442 0060459 203.3747 126.9066  2.00561914 40266"}}, "geometry": {"type": "Point", "coordinates": [27.792664903619407, -12.507617090015827]}}, {"type": "Feature", "properties": {"norad_id": 46114, "name": "GALAXY 30 (WAAS/PRN 135)", "group": "gnss", "lat": 0.03466903432508009, "lon": 43.07429866168259, "alt_km": 35793.373799732224, "timestamp": "2025-12-12T05:47:29.014798+00:00", "meta": {"OBJECT_NAME": "GALAXY 30 (WAAS/PRN 135)", "OBJECT_ID": "2020-056C", "EPOCH": "2025-12-11T23:11:21.488352", "MEAN_MOTION": 1.00272653, "ECCENTRICITY": 0.00022681, "INCLINATION": 0.0191, "RA_OF_ASC_NODE": 335.5814, "ARG_OF_PERICENTER": 285.5997, "MEAN_ANOMALY": 42.5791, "EPHEMERIS_TYPE": 0, "CLASSIFICATION_TYPE": "U", "NORAD_CAT_ID": 46114, "ELEMENT_SET_NO": 999, "REV_AT_EPOCH": 1941, "BSTAR": 0, "MEAN_MOTION_DOT": 4.5e-07, "MEAN_MOTION_DDOT": 0}, "tle": {"line1": "1 46114U 20056C   25345.96622093  .00000045  00000+0  00000+0 0  9992", "line2": "2 46114   0.0191 335.5814 0002268 285.5997  42.5791  1.00272653 19410"}}, "geometry": {"type": "Point", "coordinates": [43.07429866168259, 0.03466903432508009]}}, {"type": "Feature", "properties": {"norad_id": 46805, "name": "COSMOS 2547 (705K)", "group": "gnss", "lat": 42.676601493673125, "lon": -135.29871990688554, "alt_km": 19141.445800041147, "timestamp": "2025-12-12T05:47:29.014812+00:00", "meta": {"OBJECT_NAME": "COSMOS 2547 (705K)", "OBJECT_ID": "2020-075A", "EPOCH": "2025-12-08T21:25:56.196192", "MEAN_MOTION": 2.13099854, "ECCENTRICITY": 0.00063847, "INCLINATION": 64.5958, "RA_OF_ASC_NODE": 198.8249, "ARG_OF_PERICENTER": 229.7163, "MEAN_ANOMALY": 130.3027, "EPHEMERIS_TYPE": 0, "CLASSIFICATION_TYPE": "U", "NORAD_CAT_ID": 46805, "ELEMENT_SET_NO": 999, "REV_AT_EPOCH": 3985, "BSTAR": 0, "MEAN_MOTION_DOT": 4.5e-07, "MEAN_MOTION_DDOT": 0}, "tle": {"line1": "1 46805U 20075A   25342.89301153  .00000045  00000+0  00000+0 0  9990", "line2": "2 46805  64.5958 198.8249 0006384 229.7163 130.3027  2.13099854 39856"}}, "geometry": {"type": "Point", "coordinates": [-135.29871990688554, 42.676601493673125]}}, {"type": "Feature", "properties": {"norad_id": 46826, "name": "GPS BIII-4  (PRN 14)", "group": "gnss", "lat": -34.09321048275651, "lon": -171.06995969153803, "alt_km": 20251.641146578477, "timestamp": "2025-12-12T05:47:29.014824+00:00", "meta": {"OBJECT_NAME": "GPS BIII-4  (PRN 14)", "OBJECT_ID": "2020-078A", "EPOCH": "2025-12-11T12:08:25.039104", "MEAN_MOTION": 2.0056681, "ECCENTRICITY": 0.00646308, "INCLINATION": 54.0154, "RA_OF_ASC_NODE": 218.391, "ARG_OF_PERICENTER": 203.3565, "MEAN_ANOMALY": 301.1266, "EPHEMERIS_TYPE": 0, "CLASSIFICATION_TYPE": "U", "NORAD_CAT_ID": 46826, "ELEMENT_SET_NO": 999, "REV_AT_EPOCH": 3774, "BSTAR": 0, "MEAN_MOTION_DOT": 1e-07, "MEAN_MOTION_DDOT": 0}, "tle": {"line1": "1 46826U 20078A   25345.50584536  .00000010  00000+0  00000+0 0  9997", "line2": "2 46826  54.0154 218.3910 0064630 203.3565 301.1266  2.00566810 37742"}}, "geometry": {"type": "Point", "coordinates": [-171.06995969153803, -34.09321048275651]}}, {"type": "Feature", "properties": {"norad_id": 48859, "name": "GPS BIII-5  (PRN 11)", "group": "gnss", "lat": 31.38658483468393, "lon": 134.9230391221504, "alt_km": 20182.47760203478, "timestamp": "2025-12-12T05:47:29.014835+00:00", "meta": {"OBJECT_NAME": "GPS BIII-5  (PRN 11)", "OBJECT_ID": "2021-054A", "EPOCH": "2025-12-08T04:14:32.423424", "MEAN_MOTION": 2.00553627, "ECCENTRICITY": 0.0024678, "INCLINATION": 55.2581, "RA_OF_ASC_NODE": 340.1367, "ARG_OF_PERICENTER": 233.3994, "MEAN_ANOMALY": 212.8593, "EPHEMERIS_TYPE": 0, "CLASSIFICATION_TYPE": "U", "NORAD_CAT_ID": 48859, "ELEMENT_SET_NO": 999, "REV_AT_EPOCH": 3292, "BSTAR": 0, "MEAN_MOTION_DOT": -8.6e-07, "MEAN_MOTION_DDOT": 0}, "tle": {"line1": "1 48859U 21054A   25342.17676416 -.00000086  00000+0  00000+0 0  9993", "line2": "2 48859  55.2581 340.1367 0024678 233.3994 212.8593  2.00553627 32922"}}, "geometry": {"type": "Point", "coordinates": [134.9230391221504, 31.38658483468393]}}, {"type": "Feature", "properties": {"norad_id": 49336, "name": "QZS-1R (QZSS/PRN 196)", "group": "gnss", "lat": -19.439174273712737, "lon": -69.83654656216763, "alt_km": 33938.544285598044, "timestamp": "2025-12-12T05:47:29.014847+00:00", "meta": {"OBJECT_NAME": "QZS-1R (QZSS/PRN 196)", "OBJECT_ID": "2021-096A", "EPOCH": "2025-12-11T14:11:56.112288", "MEAN_MOTION": 1.00257955, "ECCENTRICITY": 0.0755122, "INCLINATION": 37.0772, "RA_OF_ASC_NODE": 82.3759, "ARG_OF_PERICENTER": 271.3113, "MEAN_ANOMALY": 74.6905, "EPHEMERIS_TYPE": 0, "CLASSIFICATION_TYPE": "U", "NORAD_CAT_ID": 49336, "ELEMENT_SET_NO": 999, "REV_AT_EPOCH": 1512, "BSTAR": 0, "MEAN_MOTION_DOT": -2.7e-06, "MEAN_MOTION_DDOT": 0}, "tle": {"line1": "1 49336U 21096A   25345.59162167 -.00000270  00000+0  00000+0 0  9997", "line2": "2 49336  37.0772  82.3759 0755122 271.3113  74.6905  1.00257955 15121"}}, "geometry": {"type": "Point", "coordinates": [-69.83654656216763, -19.439174273712737]}}, {"type": "Feature", "properties": {"norad_id": 49809, "name": "GSAT0223 (GALILEO 27)", "group": "gnss", "lat": -38.02996701312548, "lon": -163.00904764028425, "alt_km": 23214.131857898472, "timestamp": "2025-12-12T05:47:29.014859+00:00", "meta": {"OBJECT_NAME": "GSAT0223 (GALILEO 27)", "OBJECT_ID": "2021-116A", "EPOCH": "2025-12-10T02:39:25.687008", "MEAN_MOTION": 1.70475768, "ECCENTRICITY": 0.000463, "INCLINATION": 57.2198, "RA_OF_ASC_NODE": 346.7831, "ARG_OF_PERICENTER": 251.6037, "MEAN_ANOMALY": 107.9349, "EPHEMERIS_TYPE": 0, "CLASSIFICATION_TYPE": "U", "NORAD_CAT_ID": 49809, "ELEMENT_SET_NO": 999, "REV_AT_EPOCH": 2495, "BSTAR": 0, "MEAN_MOTION_DOT": -8.7e-07, "MEAN_MOTION_DDOT": 0}, "tle": {"line1": "1 49809U 21116A   25344.11071397 -.00000087  00000+0  00000+0 0  9992", "line2": "2 49809  57.2198 346.7831 0004630 251.6037 107.9349  1.70475768 24951"}}, "geometry": {"type": "Point", "coordinates": [-163.00904764028425, -38.02996701312548]}}]}